STARLINK-36730          
1 67874U 26034AA  26065.00002315  .00096909  00000+0  49018-3 0  9994
2 67874  53.1593 229.6346 0001177  59.0797  34.1204 15.80822103  3260
STARLINK-36727          
1 67875U 26034AB  26065.00002315  .00064229  00000+0  32711-3 0  9997
2 67875  53.1594 229.6256 0001055  50.1225  47.3455 15.80835052  3266
STARLINK-36743          
1 67876U 26034AC  26065.00002315  .00088633  00000+0  44914-3 0  9991
2 67876  53.1595 229.6162 0000999  40.8300  60.9158 15.80817859  3266
STARLINK-36784          
1 67877U 26034AD  26065.17108492  .00296973  00000+0  14509-2 0  9997
2 67877  53.1604 228.7493 0001022  18.1823 341.9236 15.80964162  3383
STARLINK-36689          
1 67878U 26034AE  26065.00002315  .00060858  00000+0  31032-3 0  9999
2 67878  53.1593 229.5990 0001214  72.9564  37.3315 15.80829782  3264
STARLINK-36818          
1 67879U 26035A   26065.25002315 -.00938602  27644-3 -24212-2 0  9999
2 67879  97.2760 357.3220 0001305 123.4447 166.2094 15.95168120  3207
STARLINK-36821          
1 67880U 26035B   26065.25002315 -.00949107  28266-3 -24293-2 0  9993
2 67880  97.2754 357.3252 0001300 122.5958 174.3851 15.95315818  3208
STARLINK-36808          
1 67881U 26035C   26065.25002315 -.00951045  28353-3 -24435-2 0  9993
2 67881  97.2754 357.3231 0001101 112.0351 180.4869 15.95245627  3203
STARLINK-36817          
1 67882U 26035D   26065.25002315 -.00966635  29288-3 -24556-2 0  9997
2 67882  97.2745 357.3283 0001155 110.9056 194.8390 15.95459956  3209
STARLINK-36856          
1 67883U 26035E   26065.25002315 -.00957059  28730-3 -24403-2 0  9990
2 67883  97.2750 357.3269 0001144 118.4384 183.1889 15.95388685  3209
STARLINK-36842          
1 67884U 26035F   26065.25002315 -.01003222  31410-3 -25369-2 0  9997
2 67884  97.2744 357.3299 0001093 105.9520 203.6521 15.95550361  3205
STARLINK-36826          
1 67885U 26035G   26065.25002315 -.01025675  32756-3 -25825-2 0  9995
2 67885  97.2743 357.3315 0001173 118.2614 194.5025 15.95633689  3206
